<?xml version="1.0" encoding="UTF-8"?>
<ndm xmlns:xsi="http://www.w3.org/2001/XMLSchema-instance" xsi:noNamespaceSchemaLocation="https://sanaregistry.org/r/ndmxml_unqualified/ndmxml-2.0.0-master-2.0.xsd">
<omm id="CCSDS_OMM_VERS" version="2.0">
<header><CREATION_DATE/><ORIGINATOR/></header><body><segment><metadata><OBJECT_NAME>IRIDIUM 921</OBJECT_NAME><OBJECT_ID>1997-034E</OBJECT_ID><CENTER_NAME>EARTH</CENTER_NAME><REF_FRAME>TEME</REF_FRAME><TIME_SYSTEM>UTC</TIME_SYSTEM><MEAN_ELEMENT_THEORY>SGP4</MEAN_ELEMENT_THEORY></metadata><data><meanElements><EPOCH>2024-04-29T18:35:04.577856</EPOCH><MEAN_MOTION>15.36021301</MEAN_MOTION><ECCENTRICITY>.0005532</ECCENTRICITY><INCLINATION>86.3795</INCLINATION><RA_OF_ASC_NODE>312.0363</RA_OF_ASC_NODE><ARG_OF_PERICENTER>84.1508</ARG_OF_PERICENTER><MEAN_ANOMALY>276.0374</MEAN_ANOMALY></meanElements><tleParameters><EPHEMERIS_TYPE>0</EPHEMERIS_TYPE><CLASSIFICATION_TYPE>U</CLASSIFICATION_TYPE><NORAD_CAT_ID>24873</NORAD_CAT_ID><ELEMENT_SET_NO>999</ELEMENT_SET_NO><REV_AT_EPOCH>46774</REV_AT_EPOCH><BSTAR>.7015E-3</BSTAR><MEAN_MOTION_DOT>.24679E-3</MEAN_MOTION_DOT><MEAN_MOTION_DDOT>0</MEAN_MOTION_DDOT></tleParameters></data></segment></body></omm>
<omm id="CCSDS_OMM_VERS" version="2.0">
<header><CREATION_DATE/><ORIGINATOR/></header><body><segment><metadata><OBJECT_NAME>IRIDIUM 26</OBJECT_NAME><OBJECT_ID>1997-043A</OBJECT_ID><CENTER_NAME>EARTH</CENTER_NAME><REF_FRAME>TEME</REF_FRAME><TIME_SYSTEM>UTC</TIME_SYSTEM><MEAN_ELEMENT_THEORY>SGP4</MEAN_ELEMENT_THEORY></metadata><data><meanElements><EPOCH>2024-04-29T21:53:25.027008</EPOCH><MEAN_MOTION>14.36315318</MEAN_MOTION><ECCENTRICITY>.0002205</ECCENTRICITY><INCLINATION>86.3911</INCLINATION><RA_OF_ASC_NODE>284.0207</RA_OF_ASC_NODE><ARG_OF_PERICENTER>86.5595</ARG_OF_PERICENTER><MEAN_ANOMALY>273.5854</MEAN_ANOMALY></meanElements><tleParameters><EPHEMERIS_TYPE>0</EPHEMERIS_TYPE><CLASSIFICATION_TYPE>U</CLASSIFICATION_TYPE><NORAD_CAT_ID>24903</NORAD_CAT_ID><ELEMENT_SET_NO>999</ELEMENT_SET_NO><REV_AT_EPOCH>39740</REV_AT_EPOCH><BSTAR>.27366E-3</BSTAR><MEAN_MOTION_DOT>.819E-5</MEAN_MOTION_DOT><MEAN_MOTION_DDOT>0</MEAN_MOTION_DDOT></tleParameters></data></segment></body></omm>
<omm id="CCSDS_OMM_VERS" version="2.0">
<header><CREATION_DATE/><ORIGINATOR/></header><body><segment><metadata><OBJECT_NAME>IRIDIUM 22</OBJECT_NAME><OBJECT_ID>1997-043E</OBJECT_ID><CENTER_NAME>EARTH</CENTER_NAME><REF_FRAME>TEME</REF_FRAME><TIME_SYSTEM>UTC</TIME_SYSTEM><MEAN_ELEMENT_THEORY>SGP4</MEAN_ELEMENT_THEORY></metadata><data><meanElements><EPOCH>2024-04-29T22:19:49.827648</EPOCH><MEAN_MOTION>14.35205742</MEAN_MOTION><ECCENTRICITY>.0002115</ECCENTRICITY><INCLINATION>86.3913</INCLINATION><RA_OF_ASC_NODE>287.2142</RA_OF_ASC_NODE><ARG_OF_PERICENTER>92.4884</ARG_OF_PERICENTER><MEAN_ANOMALY>267.6555</MEAN_ANOMALY></meanElements><tleParameters><EPHEMERIS_TYPE>0</EPHEMERIS_TYPE><CLASSIFICATION_TYPE>U</CLASSIFICATION_TYPE><NORAD_CAT_ID>24907</NORAD_CAT_ID><ELEMENT_SET_NO>999</ELEMENT_SET_NO><REV_AT_EPOCH>39748</REV_AT_EPOCH><BSTAR>.26426E-3</BSTAR><MEAN_MOTION_DOT>.775E-5</MEAN_MOTION_DOT><MEAN_MOTION_DDOT>0</MEAN_MOTION_DDOT></tleParameters></data></segment></body></omm>
<omm id="CCSDS_OMM_VERS" version="2.0">
<header><CREATION_DATE/><ORIGINATOR/></header><body><segment><metadata><OBJECT_NAME>DUMMY MASS 1</OBJECT_NAME><OBJECT_ID>1997-048A</OBJECT_ID><CENTER_NAME>EARTH</CENTER_NAME><REF_FRAME>TEME</REF_FRAME><TIME_SYSTEM>UTC</TIME_SYSTEM><MEAN_ELEMENT_THEORY>SGP4</MEAN_ELEMENT_THEORY></metadata><data><meanElements><EPOCH>2024-04-29T20:24:13.699584</EPOCH><MEAN_MOTION>14.86163486</MEAN_MOTION><ECCENTRICITY>.0007563</ECCENTRICITY><INCLINATION>86.3329</INCLINATION><RA_OF_ASC_NODE>326.3389</RA_OF_ASC_NODE><ARG_OF_PERICENTER>153.1601</ARG_OF_PERICENTER><MEAN_ANOMALY>207.0016</MEAN_ANOMALY></meanElements><tleParameters><EPHEMERIS_TYPE>0</EPHEMERIS_TYPE><CLASSIFICATION_TYPE>U</CLASSIFICATION_TYPE><NORAD_CAT_ID>24925</NORAD_CAT_ID><ELEMENT_SET_NO>999</ELEMENT_SET_NO><REV_AT_EPOCH>44372</REV_AT_EPOCH><BSTAR>.7368E-4</BSTAR><MEAN_MOTION_DOT>.674E-5</MEAN_MOTION_DOT><MEAN_MOTION_DDOT>0</MEAN_MOTION_DDOT></tleParameters></data></segment></body></omm>
<omm id="CCSDS_OMM_VERS" version="2.0">
<header><CREATION_DATE/><ORIGINATOR/></header><body><segment><metadata><OBJECT_NAME>DUMMY MASS 2</OBJECT_NAME><OBJECT_ID>1997-048B</OBJECT_ID><CENTER_NAME>EARTH</CENTER_NAME><REF_FRAME>TEME</REF_FRAME><TIME_SYSTEM>UTC</TIME_SYSTEM><MEAN_ELEMENT_THEORY>SGP4</MEAN_ELEMENT_THEORY></metadata><data><meanElements><EPOCH>2024-04-29T22:42:37.750464</EPOCH><MEAN_MOTION>14.85922380</MEAN_MOTION><ECCENTRICITY>.0007907</ECCENTRICITY><INCLINATION>86.3331</INCLINATION><RA_OF_ASC_NODE>327.8292</RA_OF_ASC_NODE><ARG_OF_PERICENTER>164.5662</ARG_OF_PERICENTER><MEAN_ANOMALY>195.5805</MEAN_ANOMALY></meanElements><tleParameters><EPHEMERIS_TYPE>0</EPHEMERIS_TYPE><CLASSIFICATION_TYPE>U</CLASSIFICATION_TYPE><NORAD_CAT_ID>24926</NORAD_CAT_ID><ELEMENT_SET_NO>999</ELEMENT_SET_NO><REV_AT_EPOCH>44352</REV_AT_EPOCH><BSTAR>.71555E-4</BSTAR><MEAN_MOTION_DOT>.652E-5</MEAN_MOTION_DOT><MEAN_MOTION_DDOT>0</MEAN_MOTION_DDOT></tleParameters></data></segment></body></omm>
<omm id="CCSDS_OMM_VERS" version="2.0">
<header><CREATION_DATE/><ORIGINATOR/></header><body><segment><metadata><OBJECT_NAME>IRIDIUM 29</OBJECT_NAME><OBJECT_ID>1997-051A</OBJECT_ID><CENTER_NAME>EARTH</CENTER_NAME><REF_FRAME>TEME</REF_FRAME><TIME_SYSTEM>UTC</TIME_SYSTEM><MEAN_ELEMENT_THEORY>SGP4</MEAN_ELEMENT_THEORY></metadata><data><meanElements><EPOCH>2024-04-29T22:45:40.157280</EPOCH><MEAN_MOTION>14.35658078</MEAN_MOTION><ECCENTRICITY>.00022</ECCENTRICITY><INCLINATION>86.3927</INCLINATION><RA_OF_ASC_NODE>317.1436</RA_OF_ASC_NODE><ARG_OF_PERICENTER>95.5257</ARG_OF_PERICENTER><MEAN_ANOMALY>264.6191</MEAN_ANOMALY></meanElements><tleParameters><EPHEMERIS_TYPE>0</EPHEMERIS_TYPE><CLASSIFICATION_TYPE>U</CLASSIFICATION_TYPE><NORAD_CAT_ID>24944</NORAD_CAT_ID><ELEMENT_SET_NO>999</ELEMENT_SET_NO><REV_AT_EPOCH>39396</REV_AT_EPOCH><BSTAR>.21071E-3</BSTAR><MEAN_MOTION_DOT>.627E-5</MEAN_MOTION_DOT><MEAN_MOTION_DDOT>0</MEAN_MOTION_DDOT></tleParameters></data></segment></body></omm>
<omm id="CCSDS_OMM_VERS" version="2.0">
<header><CREATION_DATE/><ORIGINATOR/></header><body><segment><metadata><OBJECT_NAME>IRIDIUM 33</OBJECT_NAME><OBJECT_ID>1997-051C</OBJECT_ID><CENTER_NAME>EARTH</CENTER_NAME><REF_FRAME>TEME</REF_FRAME><TIME_SYSTEM>UTC</TIME_SYSTEM><MEAN_ELEMENT_THEORY>SGP4</MEAN_ELEMENT_THEORY></metadata><data><meanElements><EPOCH>2024-04-29T22:19:19.556544</EPOCH><MEAN_MOTION>14.34329017</MEAN_MOTION><ECCENTRICITY>.0007746</ECCENTRICITY><INCLINATION>86.3841</INCLINATION><RA_OF_ASC_NODE>316.4059</RA_OF_ASC_NODE><ARG_OF_PERICENTER>3.1093</ARG_OF_PERICENTER><MEAN_ANOMALY>357.0149</MEAN_ANOMALY></meanElements><tleParameters><EPHEMERIS_TYPE>0</EPHEMERIS_TYPE><CLASSIFICATION_TYPE>U</CLASSIFICATION_TYPE><NORAD_CAT_ID>24946</NORAD_CAT_ID><ELEMENT_SET_NO>999</ELEMENT_SET_NO><REV_AT_EPOCH>39349</REV_AT_EPOCH><BSTAR>.15092E-3</BSTAR><MEAN_MOTION_DOT>.443E-5</MEAN_MOTION_DOT><MEAN_MOTION_DDOT>0</MEAN_MOTION_DDOT></tleParameters></data></segment></body></omm>
<omm id="CCSDS_OMM_VERS" version="2.0">
<header><CREATION_DATE/><ORIGINATOR/></header><body><segment><metadata><OBJECT_NAME>IRIDIUM 28</OBJECT_NAME><OBJECT_ID>1997-051E</OBJECT_ID><CENTER_NAME>EARTH</CENTER_NAME><REF_FRAME>TEME</REF_FRAME><TIME_SYSTEM>UTC</TIME_SYSTEM><MEAN_ELEMENT_THEORY>SGP4</MEAN_ELEMENT_THEORY></metadata><data><meanElements><EPOCH>2024-04-29T21:56:59.635104</EPOCH><MEAN_MOTION>14.36607861</MEAN_MOTION><ECCENTRICITY>.0002205</ECCENTRICITY><INCLINATION>86.3928</INCLINATION><RA_OF_ASC_NODE>314.9090</RA_OF_ASC_NODE><ARG_OF_PERICENTER>78.3573</ARG_OF_PERICENTER><MEAN_ANOMALY>281.7872</MEAN_ANOMALY></meanElements><tleParameters><EPHEMERIS_TYPE>0</EPHEMERIS_TYPE><CLASSIFICATION_TYPE>U</CLASSIFICATION_TYPE><NORAD_CAT_ID>24948</NORAD_CAT_ID><ELEMENT_SET_NO>999</ELEMENT_SET_NO><REV_AT_EPOCH>39449</REV_AT_EPOCH><BSTAR>.21625E-3</BSTAR><MEAN_MOTION_DOT>.655E-5</MEAN_MOTION_DOT><MEAN_MOTION_DDOT>0</MEAN_MOTION_DDOT></tleParameters></data></segment></body></omm>

</ndm>
