IRIDIUM 921             
1 24873U 97034E   24120.77435854  .00024679  00000+0  70150-3 0  9992
2 24873  86.3795 312.0363 0005532  84.1508 276.0374 15.36021301467742
IRIDIUM 26              
1 24903U 97043A   24120.91209522  .00000819  00000+0  27366-3 0  9994
2 24903  86.3911 284.0207 0002205  86.5595 273.5854 14.36315318397400
IRIDIUM 22              
1 24907U 97043E   24120.93043782  .00000775  00000+0  26426-3 0  9991
2 24907  86.3913 287.2142 0002115  92.4884 267.6555 14.35205742397484
DUMMY MASS 1            
1 24925U 97048A   24120.85015856  .00000674  00000+0  73680-4 0  9991
2 24925  86.3329 326.3389 0007563 153.1601 207.0016 14.86163486443720
DUMMY MASS 2            
1 24926U 97048B   24120.94627026  .00000652  00000+0  71555-4 0  9995
2 24926  86.3331 327.8292 0007907 164.5662 195.5805 14.85922380443528
IRIDIUM 29              
1 24944U 97051A   24120.94838145  .00000627  00000+0  21071-3 0  9994
2 24944  86.3927 317.1436 0002200  95.5257 264.6191 14.35658078393968
IRIDIUM 33              
1 24946U 97051C   24120.93008746  .00000443  00000+0  15092-3 0  9993
2 24946  86.3841 316.4059 0007746   3.1093 357.0149 14.34329017393496
IRIDIUM 28              
1 24948U 97051E   24120.91457911  .00000655  00000+0  21625-3 0  9999
2 24948  86.3928 314.9090 0002205  78.3573 281.7872 14.36607861394499
